{
"type": "FeatureCollection",
"name": "geotiff_extents_updated",
"crs": { "type": "name", "properties": { "name": "urn:ogc:def:crs:OGC:1.3:CRS84" } },
"features": [
{ "type": "Feature", "properties": { "epsg": "32619", "utmWkt": "POLYGON ((525330.0000000000000000 5000730.0000000000000000, 525330.0000000000000000 5010630.0000000000000000, 515430.0000000000000000 5010630.0000000000000000, 515430.0000000000000000 5000730.0000000000000000, 525330.0000000000000000 5000730.0000000000000000))", "name": "19TEL", "subgrid_id": 1, "chip_id": "19TEL_1", "Site_ID": "ME-1" }, "geometry": { "type": "Polygon", "coordinates": [ [ [ -68.677216189706954, 45.159593700385706 ], [ -68.677216189706954, 45.248995026799278 ], [ -68.803679070604929, 45.248995026799278 ], [ -68.803679070604929, 45.159593700385706 ], [ -68.677216189706954, 45.159593700385706 ] ] ] } },
{ "type": "Feature", "properties": { "epsg": "32618", "utmWkt": "POLYGON ((802230.0000000000000000 4880820.0000000000000000, 802230.0000000000000000 4890720.0000000000000000, 792330.0000000000000000 4890720.0000000000000000, 792330.0000000000000000 4880820.0000000000000000, 802230.0000000000000000 4880820.0000000000000000))", "name": "18TYP", "subgrid_id": 2, "chip_id": "18TYP_2", "Site_ID": "NH-1" }, "geometry": { "type": "Polygon", "coordinates": [ [ [ -71.223609470880149, 44.018288755085756 ], [ -71.223609470880149, 44.111248318455075 ], [ -71.352531323380802, 44.111248318455075 ], [ -71.352531323380802, 44.018288755085756 ], [ -71.223609470880149, 44.018288755085756 ] ] ] } },
{ "type": "Feature", "properties": { "epsg": "32618", "utmWkt": "POLYGON ((769680.0000000000000000 4866000.0000000000000000, 769680.0000000000000000 4875900.0000000000000000, 759780.0000000000000000 4875900.0000000000000000, 759780.0000000000000000 4866000.0000000000000000, 769680.0000000000000000 4866000.0000000000000000))", "name": "18TYP", "subgrid_id": 2, "chip_id": "18TYP_2", "Site_ID": "NH-2" }, "geometry": { "type": "Polygon", "coordinates": [ [ [ -71.637140126418203, 43.897761144795517 ], [ -71.637140126418203, 43.990308133448309 ], [ -71.765227032649577, 43.990308133448309 ], [ -71.765227032649577, 43.897761144795517 ], [ -71.637140126418203, 43.897761144795517 ] ] ] } },
{ "type": "Feature", "properties": { "epsg": "32618", "utmWkt": "POLYGON ((566790.0000000000000000 4865070.0000000000000000, 566790.0000000000000000 4874970.0000000000000000, 556890.0000000000000000 4874970.0000000000000000, 556890.0000000000000000 4865070.0000000000000000, 566790.0000000000000000 4865070.0000000000000000))", "name": "18TWP", "subgrid_id": 4, "chip_id": "18TWP_4", "Site_ID": "NY-1" }, "geometry": { "type": "Polygon", "coordinates": [ [ [ -74.166591248873388, 43.935720066603203 ], [ -74.166591248873388, 44.025679943642572 ], [ -74.29117495875802, 44.025679943642572 ], [ -74.29117495875802, 43.935720066603203 ], [ -74.166591248873388, 43.935720066603203 ] ] ] } },
{ "type": "Feature", "properties": { "epsg": "32618", "utmWkt": "POLYGON ((736470.0000000000000000 4707900.0000000000000000, 736470.0000000000000000 4717800.0000000000000000, 726570.0000000000000000 4717800.0000000000000000, 726570.0000000000000000 4707900.0000000000000000, 736470.0000000000000000 4707900.0000000000000000))", "name": "18TYN", "subgrid_id": 5, "chip_id": "18TYN_5", "Site_ID": "MA-1" }, "geometry": { "type": "Polygon", "coordinates": [ [ [ -72.118644826651732, 42.48734497862096 ], [ -72.118644826651732, 42.579358876658475 ], [ -72.243058592697636, 42.579358876658475 ], [ -72.243058592697636, 42.48734497862096 ], [ -72.118644826651732, 42.48734497862096 ] ] ] } },
{ "type": "Feature", "properties": { "epsg": "32618", "utmWkt": "POLYGON ((313710.0000000000000000 4329600.0000000000000000, 313710.0000000000000000 4339500.0000000000000000, 303810.0000000000000000 4339500.0000000000000000, 303810.0000000000000000 4329600.0000000000000000, 313710.0000000000000000 4329600.0000000000000000))", "name": "18SUJ", "subgrid_id": 6, "chip_id": "18SUJ_6", "Site_ID": "MD-1" }, "geometry": { "type": "Polygon", "coordinates": [ [ [ -77.154158044173528, 39.093478889277733 ], [ -77.154158044173528, 39.184796613238269 ], [ -77.271418583719566, 39.184796613238269 ], [ -77.271418583719566, 39.093478889277733 ], [ -77.154158044173528, 39.093478889277733 ] ] ] } },
{ "type": "Feature", "properties": { "epsg": "32618", "utmWkt": "POLYGON ((345300.0000000000000000 4316880.0000000000000000, 345300.0000000000000000 4326780.0000000000000000, 335400.0000000000000000 4326780.0000000000000000, 335400.0000000000000000 4316880.0000000000000000, 345300.0000000000000000 4316880.0000000000000000))", "name": "18SUJ", "subgrid_id": 6, "chip_id": "18SUJ_6", "Site_ID": "MD-2" }, "geometry": { "type": "Polygon", "coordinates": [ [ [ -76.786162986802964, 38.985453037484874 ], [ -76.786162986802964, 39.07642684991162 ], [ -76.902801420688945, 39.07642684991162 ], [ -76.902801420688945, 38.985453037484874 ], [ -76.786162986802964, 38.985453037484874 ] ] ] } },
{ "type": "Feature", "properties": { "epsg": "32618", "utmWkt": "POLYGON ((369630.0000000000000000 4300800.0000000000000000, 369630.0000000000000000 4310700.0000000000000000, 359730.0000000000000000 4310700.0000000000000000, 359730.0000000000000000 4300800.0000000000000000, 369630.0000000000000000 4300800.0000000000000000))", "name": "18SUJ", "subgrid_id": 6, "chip_id": "18SUJ_6", "Site_ID": "MD-3" }, "geometry": { "type": "Polygon", "coordinates": [ [ [ -76.502290050275192, 38.844842849566504 ], [ -76.502290050275192, 38.935548885224243 ], [ -76.618352515538376, 38.935548885224243 ], [ -76.618352515538376, 38.844842849566504 ], [ -76.502290050275192, 38.844842849566504 ] ] ] } },
{ "type": "Feature", "properties": { "epsg": "32618", "utmWkt": "POLYGON ((241650.0000000000000000 4319970.0000000000000000, 241650.0000000000000000 4329870.0000000000000000, 231750.0000000000000000 4329870.0000000000000000, 231750.0000000000000000 4319970.0000000000000000, 241650.0000000000000000 4319970.0000000000000000))", "name": "18STJ", "subgrid_id": 9, "chip_id": "18STJ_9", "Site_ID": "VA-1" }, "geometry": { "type": "Polygon", "coordinates": [ [ [ -77.982863510448112, 38.987651417259578 ], [ -77.982863510448112, 39.07971870583615 ], [ -78.100908516753492, 39.07971870583615 ], [ -78.100908516753492, 38.987651417259578 ], [ -77.982863510448112, 38.987651417259578 ] ] ] } },
{ "type": "Feature", "properties": { "epsg": "32618", "utmWkt": "POLYGON ((232650.0000000000000000 4304640.0000000000000000, 232650.0000000000000000 4314540.0000000000000000, 222750.0000000000000000 4314540.0000000000000000, 222750.0000000000000000 4304640.0000000000000000, 232650.0000000000000000 4304640.0000000000000000))", "name": "18STJ", "subgrid_id": 9, "chip_id": "18STJ_9", "Site_ID": "VA-2" }, "geometry": { "type": "Polygon", "coordinates": [ [ [ -78.080661628736877, 38.846918113932674 ], [ -78.080661628736877, 38.939065770530057 ], [ -78.19857338383639, 38.939065770530057 ], [ -78.19857338383639, 38.846918113932674 ], [ -78.080661628736877, 38.846918113932674 ] ] ] } },
{ "type": "Feature", "properties": { "epsg": "32618", "utmWkt": "POLYGON ((213270.0000000000000000 4274640.0000000000000000, 213270.0000000000000000 4284540.0000000000000000, 203370.0000000000000000 4284540.0000000000000000, 203370.0000000000000000 4274640.0000000000000000, 213270.0000000000000000 4274640.0000000000000000))", "name": "18STH", "subgrid_id": 11, "chip_id": "18STH_11", "Site_ID": "VA-3" }, "geometry": { "type": "Polygon", "coordinates": [ [ [ -78.29123117495628, 38.570726939939782 ], [ -78.29123117495628, 38.663046195963922 ], [ -78.408902703661937, 38.663046195963922 ], [ -78.408902703661937, 38.570726939939782 ], [ -78.29123117495628, 38.570726939939782 ] ] ] } },
{ "type": "Feature", "properties": { "epsg": "32618", "utmWkt": "POLYGON ((217170.0000000000000000 4197390.0000000000000000, 217170.0000000000000000 4207290.0000000000000000, 207270.0000000000000000 4207290.0000000000000000, 207270.0000000000000000 4197390.0000000000000000, 217170.0000000000000000 4197390.0000000000000000))", "name": "18STH", "subgrid_id": 11, "chip_id": "18STH_11", "Site_ID": "VA-4" }, "geometry": { "type": "Polygon", "coordinates": [ [ [ -78.215748673343143, 37.876988458406885 ], [ -78.215748673343143, 37.969203213641379 ], [ -78.332160307886454, 37.969203213641379 ], [ -78.332160307886454, 37.876988458406885 ], [ -78.215748673343143, 37.876988458406885 ] ] ] } },
{ "type": "Feature", "properties": { "epsg": "32617", "utmWkt": "POLYGON ((673800.0000000000000000 4154610.0000000000000000, 673800.0000000000000000 4164510.0000000000000000, 663900.0000000000000000 4164510.0000000000000000, 663900.0000000000000000 4154610.0000000000000000, 673800.0000000000000000 4154610.0000000000000000))", "name": "17SPB", "subgrid_id": 13, "chip_id": "17SPB_13", "Site_ID": "VA-5" }, "geometry": { "type": "Polygon", "coordinates": [ [ [ -79.030889724802066, 37.522096249965053 ], [ -79.030889724802066, 37.613095823251918 ], [ -79.14521223779137, 37.613095823251918 ], [ -79.14521223779137, 37.522096249965053 ], [ -79.030889724802066, 37.522096249965053 ] ] ] } },
{ "type": "Feature", "properties": { "epsg": "32617", "utmWkt": "POLYGON ((374310.0000000000000000 3936360.0000000000000000, 374310.0000000000000000 3946260.0000000000000000, 364410.0000000000000000 3946260.0000000000000000, 364410.0000000000000000 3936360.0000000000000000, 374310.0000000000000000 3936360.0000000000000000))", "name": "17SLV", "subgrid_id": 14, "chip_id": "17SLV_14", "Site_ID": "NC-1" }, "geometry": { "type": "Polygon", "coordinates": [ [ [ -82.386921489588147, 35.561645417005892 ], [ -82.386921489588147, 35.652188861015006 ], [ -82.49779304691134, 35.652188861015006 ], [ -82.49779304691134, 35.561645417005892 ], [ -82.386921489588147, 35.561645417005892 ] ] ] } },
{ "type": "Feature", "properties": { "epsg": "32617", "utmWkt": "POLYGON ((364380.0000000000000000 3935220.0000000000000000, 364380.0000000000000000 3945120.0000000000000000, 354480.0000000000000000 3945120.0000000000000000, 354480.0000000000000000 3935220.0000000000000000, 364380.0000000000000000 3935220.0000000000000000))", "name": "17SLV", "subgrid_id": 14, "chip_id": "17SLV_14", "Site_ID": "NC-2" }, "geometry": { "type": "Polygon", "coordinates": [ [ [ -82.496270491361841, 35.549961233995177 ], [ -82.496270491361841, 35.640599187035612 ], [ -82.607241494649614, 35.640599187035612 ], [ -82.607241494649614, 35.549961233995177 ], [ -82.496270491361841, 35.549961233995177 ] ] ] } },
{ "type": "Feature", "properties": { "epsg": "32617", "utmWkt": "POLYGON ((278520.0000000000000000 3947400.0000000000000000, 278520.0000000000000000 3957300.0000000000000000, 268620.0000000000000000 3957300.0000000000000000, 268620.0000000000000000 3947400.0000000000000000, 278520.0000000000000000 3947400.0000000000000000))", "name": "17SKV", "subgrid_id": 16, "chip_id": "17SKV_16", "Site_ID": "TN-1" }, "geometry": { "type": "Polygon", "coordinates": [ [ [ -83.446265065177585, 35.64334961782783 ], [ -83.446265065177585, 35.734800229911258 ], [ -83.55836370092976, 35.734800229911258 ], [ -83.55836370092976, 35.64334961782783 ], [ -83.446265065177585, 35.64334961782783 ] ] ] } },
{ "type": "Feature", "properties": { "epsg": "32617", "utmWkt": "POLYGON ((208890.0000000000000000 3980010.0000000000000000, 208890.0000000000000000 3989910.0000000000000000, 198990.0000000000000000 3989910.0000000000000000, 198990.0000000000000000 3980010.0000000000000000, 208890.0000000000000000 3980010.0000000000000000))", "name": "17SKV", "subgrid_id": 16, "chip_id": "17SKV_16", "Site_ID": "TN-2" }, "geometry": { "type": "Polygon", "coordinates": [ [ [ -84.226229003338858, 35.918115296172573 ], [ -84.226229003338858, 36.010228576424744 ], [ -84.339535444851762, 36.010228576424744 ], [ -84.339535444851762, 35.918115296172573 ], [ -84.226229003338858, 35.918115296172573 ] ] ] } },
{ "type": "Feature", "properties": { "epsg": "32617", "utmWkt": "POLYGON ((245250.0000000000000000 3509190.0000000000000000, 245250.0000000000000000 3519090.0000000000000000, 235350.0000000000000000 3519090.0000000000000000, 235350.0000000000000000 3509190.0000000000000000, 245250.0000000000000000 3509190.0000000000000000))", "name": "17SKR", "subgrid_id": 18, "chip_id": "17SKR_18", "Site_ID": "GA-1" }, "geometry": { "type": "Polygon", "coordinates": [ [ [ -83.687585398422726, 31.687527346751825 ], [ -83.687585398422726, 31.7789911280917 ], [ -83.794604197490472, 31.7789911280917 ], [ -83.794604197490472, 31.687527346751825 ], [ -83.687585398422726, 31.687527346751825 ] ] ] } },
{ "type": "Feature", "properties": { "epsg": "32617", "utmWkt": "POLYGON ((256320.0000000000000000 3484260.0000000000000000, 256320.0000000000000000 3494160.0000000000000000, 246420.0000000000000000 3494160.0000000000000000, 246420.0000000000000000 3484260.0000000000000000, 256320.0000000000000000 3484260.0000000000000000))", "name": "17RKQ", "subgrid_id": 19, "chip_id": "17RKQ_19", "Site_ID": "GA-2" }, "geometry": { "type": "Polygon", "coordinates": [ [ [ -83.564736100107496, 31.465346215208481 ], [ -83.564736100107496, 31.556707926041156 ], [ -83.67137799440971, 31.556707926041156 ], [ -83.67137799440971, 31.465346215208481 ], [ -83.564736100107496, 31.465346215208481 ] ] ] } },
{ "type": "Feature", "properties": { "epsg": "32617", "utmWkt": "POLYGON ((387060.0000000000000000 3285450.0000000000000000, 387060.0000000000000000 3295350.0000000000000000, 377160.0000000000000000 3295350.0000000000000000, 377160.0000000000000000 3285450.0000000000000000, 387060.0000000000000000 3285450.0000000000000000))", "name": "17RLN", "subgrid_id": 20, "chip_id": "17RLN_20", "Site_ID": "FL-1" }, "geometry": { "type": "Polygon", "coordinates": [ [ [ -82.167391229587025, 29.69306902875983 ], [ -82.167391229587025, 29.783338807395076 ], [ -82.270827127022415, 29.783338807395076 ], [ -82.270827127022415, 29.69306902875983 ], [ -82.167391229587025, 29.69306902875983 ] ] ] } },
{ "type": "Feature", "properties": { "epsg": "32617", "utmWkt": "POLYGON ((408810.0000000000000000 3279840.0000000000000000, 408810.0000000000000000 3289740.0000000000000000, 398910.0000000000000000 3289740.0000000000000000, 398910.0000000000000000 3279840.0000000000000000, 408810.0000000000000000 3279840.0000000000000000))", "name": "17RLN", "subgrid_id": 20, "chip_id": "17RLN_20", "Site_ID": "FL-2" }, "geometry": { "type": "Polygon", "coordinates": [ [ [ -81.942131235753806, 29.644410848128661 ], [ -81.942131235753806, 29.734512652452008 ], [ -82.045324039525937, 29.734512652452008 ], [ -82.045324039525937, 29.644410848128661 ], [ -81.942131235753806, 29.644410848128661 ] ] ] } },
{ "type": "Feature", "properties": { "epsg": "32617", "utmWkt": "POLYGON ((484020.0000000000000000 3001020.0000000000000000, 484020.0000000000000000 3010920.0000000000000000, 474120.0000000000000000 3010920.0000000000000000, 474120.0000000000000000 3001020.0000000000000000, 484020.0000000000000000 3001020.0000000000000000))", "name": "17RML", "subgrid_id": 22, "chip_id": "17RML_22", "Site_ID": "FL-3" }, "geometry": { "type": "Polygon", "coordinates": [ [ [ -81.161252038952213, 27.131435806099987 ], [ -81.161252038952213, 27.220966554541295 ], [ -81.261359063871808, 27.220966554541295 ], [ -81.261359063871808, 27.131435806099987 ], [ -81.161252038952213, 27.131435806099987 ] ] ] } },
{ "type": "Feature", "properties": { "epsg": "32617", "utmWkt": "POLYGON ((410910.0000000000000000 3024360.0000000000000000, 410910.0000000000000000 3034260.0000000000000000, 401010.0000000000000000 3034260.0000000000000000, 401010.0000000000000000 3024360.0000000000000000, 410910.0000000000000000 3024360.0000000000000000))", "name": "17RML", "subgrid_id": 22, "chip_id": "17RML_22", "Site_ID": "FL-4" }, "geometry": { "type": "Polygon", "coordinates": [ [ [ -81.900646104719627, 27.338814446072149 ], [ -81.900646104719627, 27.428862600509667 ], [ -82.001521995826764, 27.428862600509667 ], [ -82.001521995826764, 27.338814446072149 ], [ -81.900646104719627, 27.338814446072149 ] ] ] } },
{ "type": "Feature", "properties": { "epsg": "32615", "utmWkt": "POLYGON ((771720.0000000000000000 5038530.0000000000000000, 771720.0000000000000000 5048430.0000000000000000, 761820.0000000000000000 5048430.0000000000000000, 761820.0000000000000000 5038530.0000000000000000, 771720.0000000000000000 5038530.0000000000000000))", "name": "15TYL", "subgrid_id": 24, "chip_id": "15TYL_24", "Site_ID": "WI-1" }, "geometry": { "type": "Polygon", "coordinates": [ [ [ -89.519785225476099, 45.447419769741884 ], [ -89.519785225476099, 45.540157442011605 ], [ -89.651644655946583, 45.540157442011605 ], [ -89.651644655946583, 45.447419769741884 ], [ -89.519785225476099, 45.447419769741884 ] ] ] } },
{ "type": "Feature", "properties": { "epsg": "32615", "utmWkt": "POLYGON ((731880.0000000000000000 5071710.0000000000000000, 731880.0000000000000000 5081610.0000000000000000, 721980.0000000000000000 5081610.0000000000000000, 721980.0000000000000000 5071710.0000000000000000, 731880.0000000000000000 5071710.0000000000000000))", "name": "15TYL", "subgrid_id": 24, "chip_id": "15TYL_24", "Site_ID": "WI-2" }, "geometry": { "type": "Polygon", "coordinates": [ [ [ -90.013459003465812, 45.760026399964381 ], [ -90.013459003465812, 45.852272039719274 ], [ -90.145357175241969, 45.852272039719274 ], [ -90.145357175241969, 45.760026399964381 ], [ -90.013459003465812, 45.760026399964381 ] ] ] } },
{ "type": "Feature", "properties": { "epsg": "32615", "utmWkt": "POLYGON ((738480.0000000000000000 5102730.0000000000000000, 738480.0000000000000000 5112630.0000000000000000, 728580.0000000000000000 5112630.0000000000000000, 728580.0000000000000000 5102730.0000000000000000, 738480.0000000000000000 5102730.0000000000000000))", "name": "15TYM", "subgrid_id": 26, "chip_id": "15TYM_26", "Site_ID": "WI-3" }, "geometry": { "type": "Polygon", "coordinates": [ [ [ -89.913102843703399, 46.036574457319141 ], [ -89.913102843703399, 46.128934595225964 ], [ -90.04582960866999, 46.128934595225964 ], [ -90.04582960866999, 46.036574457319141 ], [ -89.913102843703399, 46.036574457319141 ] ] ] } },
{ "type": "Feature", "properties": { "epsg": "32615", "utmWkt": "POLYGON ((786480.0000000000000000 5122500.0000000000000000, 786480.0000000000000000 5132400.0000000000000000, 776580.0000000000000000 5132400.0000000000000000, 776580.0000000000000000 5122500.0000000000000000, 786480.0000000000000000 5122500.0000000000000000))", "name": "15TYM", "subgrid_id": 26, "chip_id": "15TYM_26", "Site_ID": "MI-1" }, "geometry": { "type": "Polygon", "coordinates": [ [ [ -89.281021397892047, 46.195742054848957 ], [ -89.281021397892047, 46.288759427051069 ], [ -89.415083228911925, 46.288759427051069 ], [ -89.415083228911925, 46.195742054848957 ], [ -89.281021397892047, 46.195742054848957 ] ] ] } },
{ "type": "Feature", "properties": { "epsg": "32615", "utmWkt": "POLYGON ((771930.0000000000000000 5120940.0000000000000000, 771930.0000000000000000 5130840.0000000000000000, 762030.0000000000000000 5130840.0000000000000000, 762030.0000000000000000 5120940.0000000000000000, 771930.0000000000000000 5120940.0000000000000000))", "name": "15TYM", "subgrid_id": 26, "chip_id": "15TYM_26", "Site_ID": "MI-2" }, "geometry": { "type": "Polygon", "coordinates": [ [ [ -89.470431377617757, 46.18769418043189 ], [ -89.470431377617757, 46.280517278127761 ], [ -89.604193226568569, 46.280517278127761 ], [ -89.604193226568569, 46.18769418043189 ], [ -89.470431377617757, 46.18769418043189 ] ] ] } },
{ "type": "Feature", "properties": { "epsg": "32616", "utmWkt": "POLYGON ((402570.0000000000000000 4427520.0000000000000000, 402570.0000000000000000 4437420.0000000000000000, 392670.0000000000000000 4437420.0000000000000000, 392670.0000000000000000 4427520.0000000000000000, 402570.0000000000000000 4427520.0000000000000000))", "name": "16TCK", "subgrid_id": 29, "chip_id": "16TCK_29", "Site_ID": "IL-1" }, "geometry": { "type": "Polygon", "coordinates": [ [ [ -88.141262727273471, 39.991043805257604 ], [ -88.141262727273471, 40.081422282711621 ], [ -88.258841729021754, 40.081422282711621 ], [ -88.258841729021754, 39.991043805257604 ], [ -88.141262727273471, 39.991043805257604 ] ] ] } },
{ "type": "Feature", "properties": { "epsg": "32615", "utmWkt": "POLYGON ((470730.0000000000000000 5256450.0000000000000000, 470730.0000000000000000 5266350.0000000000000000, 460830.0000000000000000 5266350.0000000000000000, 460830.0000000000000000 5256450.0000000000000000, 470730.0000000000000000 5256450.0000000000000000))", "name": "15TVN", "subgrid_id": 30, "chip_id": "15TVN_30", "Site_ID": "MN-1" }, "geometry": { "type": "Polygon", "coordinates": [ [ [ -93.388354020969885, 47.460313159059332 ], [ -93.388354020969885, 47.549911085801163 ], [ -93.520582202286207, 47.549911085801163 ], [ -93.520582202286207, 47.460313159059332 ], [ -93.388354020969885, 47.460313159059332 ] ] ] } },
{ "type": "Feature", "properties": { "epsg": "32614", "utmWkt": "POLYGON ((754140.0000000000000000 5059050.0000000000000000, 754140.0000000000000000 5068950.0000000000000000, 744240.0000000000000000 5068950.0000000000000000, 744240.0000000000000000 5059050.0000000000000000, 754140.0000000000000000 5059050.0000000000000000))", "name": "14TQR", "subgrid_id": 31, "chip_id": "14TQR_31", "Site_ID": "MN-2" }, "geometry": { "type": "Polygon", "coordinates": [ [ [ -95.733866649120017, 45.638437376908072 ], [ -95.733866649120017, 45.730965641993158 ], [ -95.865879535315713, 45.730965641993158 ], [ -95.865879535315713, 45.638437376908072 ], [ -95.733866649120017, 45.638437376908072 ] ] ] } },
{ "type": "Feature", "properties": { "epsg": "32614", "utmWkt": "POLYGON ((728880.0000000000000000 5051700.0000000000000000, 728880.0000000000000000 5061600.0000000000000000, 718980.0000000000000000 5061600.0000000000000000, 718980.0000000000000000 5051700.0000000000000000, 728880.0000000000000000 5051700.0000000000000000))", "name": "14TQR", "subgrid_id": 31, "chip_id": "14TQR_31", "Site_ID": "MN-3" }, "geometry": { "type": "Polygon", "coordinates": [ [ [ -96.061511369288127, 45.58115611027408 ], [ -96.061511369288127, 45.673345442912321 ], [ -96.192904937004585, 45.673345442912321 ], [ -96.192904937004585, 45.58115611027408 ], [ -96.061511369288127, 45.58115611027408 ] ] ] } },
{ "type": "Feature", "properties": { "epsg": "32615", "utmWkt": "POLYGON ((578100.0000000000000000 4337850.0000000000000000, 578100.0000000000000000 4347750.0000000000000000, 568200.0000000000000000 4347750.0000000000000000, 568200.0000000000000000 4337850.0000000000000000, 578100.0000000000000000 4337850.0000000000000000))", "name": "15SWD", "subgrid_id": 33, "chip_id": "15SWD_33", "Site_ID": "MO-1" }, "geometry": { "type": "Polygon", "coordinates": [ [ [ -92.094551187718238, 39.186387696244836 ], [ -92.094551187718238, 39.276421306764661 ], [ -92.21031589988111, 39.276421306764661 ], [ -92.21031589988111, 39.186387696244836 ], [ -92.094551187718238, 39.186387696244836 ] ] ] } },
{ "type": "Feature", "properties": { "epsg": "32615", "utmWkt": "POLYGON ((592020.0000000000000000 4306680.0000000000000000, 592020.0000000000000000 4316580.0000000000000000, 582120.0000000000000000 4316580.0000000000000000, 582120.0000000000000000 4306680.0000000000000000, 592020.0000000000000000 4306680.0000000000000000))", "name": "15SWD", "subgrid_id": 33, "chip_id": "15SWD_33", "Site_ID": "MO-2" }, "geometry": { "type": "Polygon", "coordinates": [ [ [ -91.937423883594377, 38.904192077665208 ], [ -91.937423883594377, 38.994374960608546 ], [ -92.052913866185648, 38.994374960608546 ], [ -92.052913866185648, 38.904192077665208 ], [ -91.937423883594377, 38.904192077665208 ] ] ] } },
{ "type": "Feature", "properties": { "epsg": "32615", "utmWkt": "POLYGON ((772620.0000000000000000 3953460.0000000000000000, 772620.0000000000000000 3963360.0000000000000000, 762720.0000000000000000 3963360.0000000000000000, 762720.0000000000000000 3953460.0000000000000000, 772620.0000000000000000 3953460.0000000000000000))", "name": "15SYV", "subgrid_id": 35, "chip_id": "15SYV_35", "Site_ID": "AR-1" }, "geometry": { "type": "Polygon", "coordinates": [ [ [ -89.984109387108347, 35.687394121278778 ], [ -89.984109387108347, 35.779228028369445 ], [ -90.096740905220628, 35.779228028369445 ], [ -90.096740905220628, 35.687394121278778 ], [ -89.984109387108347, 35.687394121278778 ] ] ] } },
{ "type": "Feature", "properties": { "epsg": "32615", "utmWkt": "POLYGON ((763350.0000000000000000 3970290.0000000000000000, 763350.0000000000000000 3980190.0000000000000000, 753450.0000000000000000 3980190.0000000000000000, 753450.0000000000000000 3970290.0000000000000000, 763350.0000000000000000 3970290.0000000000000000))", "name": "15SYV", "subgrid_id": 35, "chip_id": "15SYV_35", "Site_ID": "AR-2" }, "geometry": { "type": "Polygon", "coordinates": [ [ [ -90.080984370132796, 35.841460840185555 ], [ -90.080984370132796, 35.93322171659635 ], [ -90.193746750697144, 35.93322171659635 ], [ -90.193746750697144, 35.841460840185555 ], [ -90.080984370132796, 35.841460840185555 ] ] ] } },
{ "type": "Feature", "properties": { "epsg": "32614", "utmWkt": "POLYGON ((355980.0000000000000000 5177130.0000000000000000, 355980.0000000000000000 5187030.0000000000000000, 346080.0000000000000000 5187030.0000000000000000, 346080.0000000000000000 5177130.0000000000000000, 355980.0000000000000000 5177130.0000000000000000))", "name": "14TLS", "subgrid_id": 37, "chip_id": "14TLS_37", "Site_ID": "ND-1" }, "geometry": { "type": "Polygon", "coordinates": [ [ [ -100.884984836584621, 46.729988130187159 ], [ -100.884984836584621, 46.821238141004436 ], [ -101.017804638671308, 46.821238141004436 ], [ -101.017804638671308, 46.729988130187159 ], [ -100.884984836584621, 46.729988130187159 ] ] ] } },
{ "type": "Feature", "properties": { "epsg": "32614", "utmWkt": "POLYGON ((496860.0000000000000000 5218200.0000000000000000, 496860.0000000000000000 5228100.0000000000000000, 486960.0000000000000000 5228100.0000000000000000, 486960.0000000000000000 5218200.0000000000000000, 496860.0000000000000000 5218200.0000000000000000))", "name": "14TMT", "subgrid_id": 38, "chip_id": "14TMT_38", "Site_ID": "ND-2" }, "geometry": { "type": "Polygon", "coordinates": [ [ [ -99.041392567066481, 47.117176708260899 ], [ -99.041392567066481, 47.20638342014977 ], [ -99.172185005742278, 47.20638342014977 ], [ -99.172185005742278, 47.117176708260899 ], [ -99.041392567066481, 47.117176708260899 ] ] ] } },
{ "type": "Feature", "properties": { "epsg": "32614", "utmWkt": "POLYGON ((486630.0000000000000000 5214510.0000000000000000, 486630.0000000000000000 5224410.0000000000000000, 476730.0000000000000000 5224410.0000000000000000, 476730.0000000000000000 5214510.0000000000000000, 486630.0000000000000000 5214510.0000000000000000))", "name": "14TMT", "subgrid_id": 38, "chip_id": "14TMT_38", "Site_ID": "ND-3" }, "geometry": { "type": "Polygon", "coordinates": [ [ [ -99.176138021610868, 47.083690578790097 ], [ -99.176138021610868, 47.17305073403196 ], [ -99.307072604931818, 47.17305073403196 ], [ -99.307072604931818, 47.083690578790097 ], [ -99.176138021610868, 47.083690578790097 ] ] ] } },
{ "type": "Feature", "properties": { "epsg": "32615", "utmWkt": "POLYGON ((214410.0000000000000000 4555650.0000000000000000, 214410.0000000000000000 4565550.0000000000000000, 204510.0000000000000000 4565550.0000000000000000, 204510.0000000000000000 4555650.0000000000000000, 214410.0000000000000000 4555650.0000000000000000))", "name": "15TTF", "subgrid_id": 40, "chip_id": "15TTF_40", "Site_ID": "NE-1" }, "geometry": { "type": "Polygon", "coordinates": [ [ [ -96.400748168161314, 41.098413234997388 ], [ -96.400748168161314, 41.190972643683807 ], [ -96.523192971998625, 41.190972643683807 ], [ -96.523192971998625, 41.098413234997388 ], [ -96.400748168161314, 41.098413234997388 ] ] ] } },
{ "type": "Feature", "properties": { "epsg": "32615", "utmWkt": "POLYGON ((315390.0000000000000000 4320360.0000000000000000, 315390.0000000000000000 4330260.0000000000000000, 305490.0000000000000000 4330260.0000000000000000, 305490.0000000000000000 4320360.0000000000000000, 315390.0000000000000000 4320360.0000000000000000))", "name": "15SUD", "subgrid_id": 41, "chip_id": "15SUD_41", "Site_ID": "KS-1" }, "geometry": { "type": "Polygon", "coordinates": [ [ [ -95.132239238175657, 39.010655186676829 ], [ -95.132239238175657, 39.101950095598781 ], [ -95.249331722580223, 39.101950095598781 ], [ -95.249331722580223, 39.010655186676829 ], [ -95.132239238175657, 39.010655186676829 ] ] ] } },
{ "type": "Feature", "properties": { "epsg": "32614", "utmWkt": "POLYGON ((713670.0000000000000000 4326270.0000000000000000, 713670.0000000000000000 4336170.0000000000000000, 703770.0000000000000000 4336170.0000000000000000, 703770.0000000000000000 4326270.0000000000000000, 713670.0000000000000000 4326270.0000000000000000))", "name": "14SQJ", "subgrid_id": 42, "chip_id": "14SQJ_42", "Site_ID": "KS-2" }, "geometry": { "type": "Polygon", "coordinates": [ [ [ -96.527423564757328, 39.059392932970823 ], [ -96.527423564757328, 39.150894244654744 ], [ -96.644862704795273, 39.150894244654744 ], [ -96.644862704795273, 39.059392932970823 ], [ -96.527423564757328, 39.059392932970823 ] ] ] } },
{ "type": "Feature", "properties": { "epsg": "32614", "utmWkt": "POLYGON ((705540.0000000000000000 3479550.0000000000000000, 705540.0000000000000000 3489450.0000000000000000, 695640.0000000000000000 3489450.0000000000000000, 695640.0000000000000000 3479550.0000000000000000, 705540.0000000000000000 3479550.0000000000000000))", "name": "14RPV", "subgrid_id": 43, "chip_id": "14RPV_43", "Site_ID": "TX-1" }, "geometry": { "type": "Polygon", "coordinates": [ [ [ -96.835343728587844, 31.432419919099729 ], [ -96.835343728587844, 31.52340083342391 ], [ -96.941503173494837, 31.52340083342391 ], [ -96.941503173494837, 31.432419919099729 ], [ -96.835343728587844, 31.432419919099729 ] ] ] } },
{ "type": "Feature", "properties": { "epsg": "32612", "utmWkt": "POLYGON ((537510.0000000000000000 4972560.0000000000000000, 537510.0000000000000000 4982460.0000000000000000, 527610.0000000000000000 4982460.0000000000000000, 527610.0000000000000000 4972560.0000000000000000, 537510.0000000000000000 4972560.0000000000000000))", "name": "12TWQ", "subgrid_id": 44, "chip_id": "12TWQ_44", "Site_ID": "WY-1" }, "geometry": { "type": "Polygon", "coordinates": [ [ [ -110.524121913556129, 44.905477204429509 ], [ -110.524121913556129, 44.995048273090092 ], [ -110.650259113296059, 44.995048273090092 ], [ -110.650259113296059, 44.905477204429509 ], [ -110.524121913556129, 44.905477204429509 ] ] ] } },
{ "type": "Feature", "properties": { "epsg": "32612", "utmWkt": "POLYGON ((538800.0000000000000000 4857600.0000000000000000, 538800.0000000000000000 4867500.0000000000000000, 528900.0000000000000000 4867500.0000000000000000, 528900.0000000000000000 4857600.0000000000000000, 538800.0000000000000000 4857600.0000000000000000))", "name": "12TWP", "subgrid_id": 45, "chip_id": "12TWP_45", "Site_ID": "WY-2" }, "geometry": { "type": "Polygon", "coordinates": [ [ [ -110.516381467526486, 43.870472622372567 ], [ -110.516381467526486, 43.960061152189517 ], [ -110.640313452750519, 43.960061152189517 ], [ -110.640313452750519, 43.870472622372567 ], [ -110.516381467526486, 43.870472622372567 ] ] ] } },
{ "type": "Feature", "properties": { "epsg": "32612", "utmWkt": "POLYGON ((526140.0000000000000000 4810200.0000000000000000, 526140.0000000000000000 4820100.0000000000000000, 516240.0000000000000000 4820100.0000000000000000, 516240.0000000000000000 4810200.0000000000000000, 526140.0000000000000000 4810200.0000000000000000))", "name": "12TWP", "subgrid_id": 45, "chip_id": "12TWP_45", "Site_ID": "WY-3" }, "geometry": { "type": "Polygon", "coordinates": [ [ [ -110.676484312652349, 43.444244608847185 ], [ -110.676484312652349, 43.53366697273313 ], [ -110.799303784551256, 43.53366697273313 ], [ -110.799303784551256, 43.444244608847185 ], [ -110.676484312652349, 43.444244608847185 ] ] ] } },
{ "type": "Feature", "properties": { "epsg": "32613", "utmWkt": "POLYGON ((526380.0000000000000000 4513380.0000000000000000, 526380.0000000000000000 4523280.0000000000000000, 516480.0000000000000000 4523280.0000000000000000, 516480.0000000000000000 4513380.0000000000000000, 526380.0000000000000000 4513380.0000000000000000))", "name": "13TEF", "subgrid_id": 47, "chip_id": "13TEF_47", "Site_ID": "CO-1" }, "geometry": { "type": "Polygon", "coordinates": [ [ [ -104.686992388914277, 40.770969467800235 ], [ -104.686992388914277, 40.860411497348615 ], [ -104.804720072499762, 40.860411497348615 ], [ -104.804720072499762, 40.770969467800235 ], [ -104.686992388914277, 40.770969467800235 ] ] ] } },
{ "type": "Feature", "properties": { "epsg": "32613", "utmWkt": "POLYGON ((458520.0000000000000000 4453590.0000000000000000, 458520.0000000000000000 4463490.0000000000000000, 448620.0000000000000000 4463490.0000000000000000, 448620.0000000000000000 4453590.0000000000000000, 458520.0000000000000000 4453590.0000000000000000))", "name": "13TDE", "subgrid_id": 48, "chip_id": "13TDE_48", "Site_ID": "CO-2" }, "geometry": { "type": "Polygon", "coordinates": [ [ [ -105.48759475428561, 40.231167762171467 ], [ -105.48759475428561, 40.320906045661978 ], [ -105.604757147166254, 40.320906045661978 ], [ -105.604757147166254, 40.231167762171467 ], [ -105.48759475428561, 40.231167762171467 ] ] ] } },
{ "type": "Feature", "properties": { "epsg": "32613", "utmWkt": "POLYGON ((456660.0000000000000000 4427970.0000000000000000, 456660.0000000000000000 4437870.0000000000000000, 446760.0000000000000000 4437870.0000000000000000, 446760.0000000000000000 4427970.0000000000000000, 456660.0000000000000000 4427970.0000000000000000))", "name": "13TDE", "subgrid_id": 48, "chip_id": "13TDE_48", "Site_ID": "CO-3" }, "geometry": { "type": "Polygon", "coordinates": [ [ [ -105.507738539468349, 40.00023883525396 ], [ -105.507738539468349, 40.089997776522324 ], [ -105.624526889278542, 40.089997776522324 ], [ -105.624526889278542, 40.00023883525396 ], [ -105.507738539468349, 40.00023883525396 ] ] ] } },
{ "type": "Feature", "properties": { "epsg": "32613", "utmWkt": "POLYGON ((389700.0000000000000000 3806550.0000000000000000, 389700.0000000000000000 3816450.0000000000000000, 379800.0000000000000000 3816450.0000000000000000, 379800.0000000000000000 3806550.0000000000000000, 389700.0000000000000000 3806550.0000000000000000))", "name": "13SCU", "subgrid_id": 50, "chip_id": "13SCU_50", "Site_ID": "NM-1" }, "geometry": { "type": "Polygon", "coordinates": [ [ [ -106.199940793481758, 34.393385057645915 ], [ -106.199940793481758, 34.483749828590291 ], [ -106.30900942801243, 34.483749828590291 ], [ -106.30900942801243, 34.393385057645915 ], [ -106.199940793481758, 34.393385057645915 ] ] ] } },
{ "type": "Feature", "properties": { "epsg": "32613", "utmWkt": "POLYGON ((364470.0000000000000000 3801120.0000000000000000, 364470.0000000000000000 3811020.0000000000000000, 354570.0000000000000000 3811020.0000000000000000, 354570.0000000000000000 3801120.0000000000000000, 364470.0000000000000000 3801120.0000000000000000))", "name": "13SCU", "subgrid_id": 50, "chip_id": "13SCU_50", "Site_ID": "NM-2" }, "geometry": { "type": "Polygon", "coordinates": [ [ [ -106.473484906318689, 34.341193402715099 ], [ -106.473484906318689, 34.431787850123619 ], [ -106.582762071983225, 34.431787850123619 ], [ -106.582762071983225, 34.341193402715099 ], [ -106.473484906318689, 34.341193402715099 ] ] ] } },
{ "type": "Feature", "properties": { "epsg": "32613", "utmWkt": "POLYGON ((347280.0000000000000000 3797370.0000000000000000, 347280.0000000000000000 3807270.0000000000000000, 337380.0000000000000000 3807270.0000000000000000, 337380.0000000000000000 3797370.0000000000000000, 347280.0000000000000000 3797370.0000000000000000))", "name": "13SCU", "subgrid_id": 50, "chip_id": "13SCU_50", "Site_ID": "NM-3" }, "geometry": { "type": "Polygon", "coordinates": [ [ [ -106.659643889617371, 34.304834949517421 ], [ -106.659643889617371, 34.395584131507583 ], [ -106.769059871172956, 34.395584131507583 ], [ -106.769059871172956, 34.304834949517421 ], [ -106.659643889617371, 34.304834949517421 ] ] ] } },
{ "type": "Feature", "properties": { "epsg": "32613", "utmWkt": "POLYGON ((351570.0000000000000000 3600960.0000000000000000, 351570.0000000000000000 3610860.0000000000000000, 341670.0000000000000000 3610860.0000000000000000, 341670.0000000000000000 3600960.0000000000000000, 351570.0000000000000000 3600960.0000000000000000))", "name": "13SCS", "subgrid_id": 53, "chip_id": "13SCS_53", "Site_ID": "NM-4" }, "geometry": { "type": "Polygon", "coordinates": [ [ [ -106.580611321145341, 32.534711491562454 ], [ -106.580611321145341, 32.625354132823006 ], [ -106.687668924682981, 32.625354132823006 ], [ -106.687668924682981, 32.534711491562454 ], [ -106.580611321145341, 32.534711491562454 ] ] ] } },
{ "type": "Feature", "properties": { "epsg": "32613", "utmWkt": "POLYGON ((339180.0000000000000000 3606270.0000000000000000, 339180.0000000000000000 3616170.0000000000000000, 329280.0000000000000000 3616170.0000000000000000, 329280.0000000000000000 3606270.0000000000000000, 339180.0000000000000000 3606270.0000000000000000))", "name": "13SCS", "subgrid_id": 53, "chip_id": "13SCS_53", "Site_ID": "NM-5" }, "geometry": { "type": "Polygon", "coordinates": [ [ [ -106.713411858887511, 32.58075118526942 ], [ -106.713411858887511, 32.671500349585557 ], [ -106.820650966018974, 32.671500349585557 ], [ -106.820650966018974, 32.58075118526942 ], [ -106.713411858887511, 32.58075118526942 ] ] ] } },
{ "type": "Feature", "properties": { "epsg": "32613", "utmWkt": "POLYGON ((331590.0000000000000000 3602310.0000000000000000, 331590.0000000000000000 3612210.0000000000000000, 321690.0000000000000000 3612210.0000000000000000, 321690.0000000000000000 3602310.0000000000000000, 331590.0000000000000000 3602310.0000000000000000))", "name": "13SCS", "subgrid_id": 53, "chip_id": "13SCS_53", "Site_ID": "NM-6" }, "geometry": { "type": "Polygon", "coordinates": [ [ [ -106.793533217888253, 32.543851470631544 ], [ -106.793533217888253, 32.634662967588163 ], [ -106.900801397899372, 32.634662967588163 ], [ -106.900801397899372, 32.543851470631544 ], [ -106.793533217888253, 32.543851470631544 ] ] ] } },
{ "type": "Feature", "properties": { "epsg": "32613", "utmWkt": "POLYGON ((336060.0000000000000000 3594000.0000000000000000, 336060.0000000000000000 3603900.0000000000000000, 326160.0000000000000000 3603900.0000000000000000, 326160.0000000000000000 3594000.0000000000000000, 336060.0000000000000000 3594000.0000000000000000))", "name": "13SCS", "subgrid_id": 53, "chip_id": "13SCS_53", "Site_ID": "NM-7" }, "geometry": { "type": "Polygon", "coordinates": [ [ [ -106.744499883450445, 32.46963525604351 ], [ -106.744499883450445, 32.560406005419146 ], [ -106.851630442788093, 32.560406005419146 ], [ -106.851630442788093, 32.46963525604351 ], [ -106.744499883450445, 32.46963525604351 ] ] ] } },
{ "type": "Feature", "properties": { "epsg": "32611", "utmWkt": "POLYGON ((498660.0000000000000000 5175960.0000000000000000, 498660.0000000000000000 5185860.0000000000000000, 488760.0000000000000000 5185860.0000000000000000, 488760.0000000000000000 5175960.0000000000000000, 498660.0000000000000000 5175960.0000000000000000))", "name": "11TMM", "subgrid_id": 57, "chip_id": "11TMM_57", "Site_ID": "WA-1" }, "geometry": { "type": "Polygon", "coordinates": [ [ [ -117.017539828121997, 46.737098473921073 ], [ -117.017539828121997, 46.826282873545907 ], [ -117.147367772893176, 46.826282873545907 ], [ -117.147367772893176, 46.737098473921073 ], [ -117.017539828121997, 46.737098473921073 ] ] ] } },
{ "type": "Feature", "properties": { "epsg": "32610", "utmWkt": "POLYGON ((528990.0000000000000000 4977900.0000000000000000, 528990.0000000000000000 4987800.0000000000000000, 519090.0000000000000000 4987800.0000000000000000, 519090.0000000000000000 4977900.0000000000000000, 528990.0000000000000000 4977900.0000000000000000))", "name": "10TEQ", "subgrid_id": 60, "chip_id": "10TEQ_60", "Site_ID": "OR-1" }, "geometry": { "type": "Polygon", "coordinates": [ [ [ -122.631902169110973, 44.953945108139187 ], [ -122.631902169110973, 45.043398344709203 ], [ -122.75798053295479, 45.043398344709203 ], [ -122.75798053295479, 44.953945108139187 ], [ -122.631902169110973, 44.953945108139187 ] ] ] } },
{ "type": "Feature", "properties": { "epsg": "32611", "utmWkt": "POLYGON ((525420.0000000000000000 4763070.0000000000000000, 525420.0000000000000000 4772970.0000000000000000, 515520.0000000000000000 4772970.0000000000000000, 515520.0000000000000000 4763070.0000000000000000, 525420.0000000000000000 4763070.0000000000000000))", "name": "11TNH", "subgrid_id": 61, "chip_id": "11TNH_61", "Site_ID": "ID-1" }, "geometry": { "type": "Polygon", "coordinates": [ [ [ -116.687577240443559, 43.019883102298174 ], [ -116.687577240443559, 43.109298679455435 ], [ -116.809527836235048, 43.109298679455435 ], [ -116.809527836235048, 43.019883102298174 ], [ -116.687577240443559, 43.019883102298174 ] ] ] } },
{ "type": "Feature", "properties": { "epsg": "32611", "utmWkt": "POLYGON ((528240.0000000000000000 4774530.0000000000000000, 528240.0000000000000000 4784430.0000000000000000, 518340.0000000000000000 4784430.0000000000000000, 518340.0000000000000000 4774530.0000000000000000, 528240.0000000000000000 4774530.0000000000000000))", "name": "11TNH", "subgrid_id": 61, "chip_id": "11TNH_61", "Site_ID": "ID-2" }, "geometry": { "type": "Polygon", "coordinates": [ [ [ -116.652334198102849, 43.122978687843514 ], [ -116.652334198102849, 43.212430282160454 ], [ -116.774541140208441, 43.212430282160454 ], [ -116.774541140208441, 43.122978687843514 ], [ -116.652334198102849, 43.122978687843514 ] ] ] } },
{ "type": "Feature", "properties": { "epsg": "32611", "utmWkt": "POLYGON ((737910.0000000000000000 4316370.0000000000000000, 737910.0000000000000000 4326270.0000000000000000, 728010.0000000000000000 4326270.0000000000000000, 728010.0000000000000000 4316370.0000000000000000, 737910.0000000000000000 4316370.0000000000000000))", "name": "11SQD", "subgrid_id": 63, "chip_id": "11SQD_63", "Site_ID": "NV-1" }, "geometry": { "type": "Polygon", "coordinates": [ [ [ -114.250672117410403, 38.964017508977214 ], [ -114.250672117410403, 39.055767135351026 ], [ -114.368269928630454, 39.055767135351026 ], [ -114.368269928630454, 38.964017508977214 ], [ -114.250672117410403, 38.964017508977214 ] ] ] } },
{ "type": "Feature", "properties": { "epsg": "32611", "utmWkt": "POLYGON ((729630.0000000000000000 4306740.0000000000000000, 729630.0000000000000000 4316640.0000000000000000, 719730.0000000000000000 4316640.0000000000000000, 719730.0000000000000000 4306740.0000000000000000, 729630.0000000000000000 4306740.0000000000000000))", "name": "11SQD", "subgrid_id": 63, "chip_id": "11SQD_63", "Site_ID": "NV-2" }, "geometry": { "type": "Polygon", "coordinates": [ [ [ -114.349499556641618, 38.879538711255691 ], [ -114.349499556641618, 38.971195509315436 ], [ -114.466837153435492, 38.971195509315436 ], [ -114.466837153435492, 38.879538711255691 ], [ -114.349499556641618, 38.879538711255691 ] ] ] } },
{ "type": "Feature", "properties": { "epsg": "32611", "utmWkt": "POLYGON ((736140.0000000000000000 4303890.0000000000000000, 736140.0000000000000000 4313790.0000000000000000, 726240.0000000000000000 4313790.0000000000000000, 726240.0000000000000000 4303890.0000000000000000, 736140.0000000000000000 4303890.0000000000000000))", "name": "11SQD", "subgrid_id": 63, "chip_id": "11SQD_63", "Site_ID": "NV-3" }, "geometry": { "type": "Polygon", "coordinates": [ [ [ -114.275419289535634, 38.852160046638993 ], [ -114.275419289535634, 38.9438828116077 ], [ -114.392795737455486, 38.9438828116077 ], [ -114.392795737455486, 38.852160046638993 ], [ -114.275419289535634, 38.852160046638993 ] ] ] } },
{ "type": "Feature", "properties": { "epsg": "32610", "utmWkt": "POLYGON ((683850.0000000000000000 4248720.0000000000000000, 683850.0000000000000000 4258620.0000000000000000, 673950.0000000000000000 4258620.0000000000000000, 673950.0000000000000000 4248720.0000000000000000, 683850.0000000000000000 4248720.0000000000000000))", "name": "10SFH", "subgrid_id": 66, "chip_id": "10SFH_66", "Site_ID": "CA-1" }, "geometry": { "type": "Polygon", "coordinates": [ [ [ -120.892939156357926, 38.367793135946634 ], [ -120.892939156357926, 38.458939479223439 ], [ -121.008785019470977, 38.458939479223439 ], [ -121.008785019470977, 38.367793135946634 ], [ -120.892939156357926, 38.367793135946634 ] ] ] } },
{ "type": "Feature", "properties": { "epsg": "32610", "utmWkt": "POLYGON ((633360.0000000000000000 4213980.0000000000000000, 633360.0000000000000000 4223880.0000000000000000, 623460.0000000000000000 4223880.0000000000000000, 623460.0000000000000000 4213980.0000000000000000, 633360.0000000000000000 4213980.0000000000000000))", "name": "10SFH", "subgrid_id": 66, "chip_id": "10SFH_66", "Site_ID": "CA-2" }, "geometry": { "type": "Polygon", "coordinates": [ [ [ -121.477923177303111, 38.063757319119162 ], [ -121.477923177303111, 38.154361671500503 ], [ -121.592594856248496, 38.154361671500503 ], [ -121.592594856248496, 38.063757319119162 ], [ -121.477923177303111, 38.063757319119162 ] ] ] } },
{ "type": "Feature", "properties": { "epsg": "32611", "utmWkt": "POLYGON ((326460.0000000000000000 4092480.0000000000000000, 326460.0000000000000000 4102380.0000000000000000, 316560.0000000000000000 4102380.0000000000000000, 316560.0000000000000000 4092480.0000000000000000, 326460.0000000000000000 4092480.0000000000000000))", "name": "11SLA", "subgrid_id": 68, "chip_id": "11SLA_68", "Site_ID": "CA-3" }, "geometry": { "type": "Polygon", "coordinates": [ [ [ -118.94934825524038, 36.960551705181196 ], [ -118.94934825524038, 37.051619925072195 ], [ -119.062899232961641, 37.051619925072195 ], [ -119.062899232961641, 36.960551705181196 ], [ -118.94934825524038, 36.960551705181196 ] ] ] } },
{ "type": "Feature", "properties": { "epsg": "32612", "utmWkt": "POLYGON ((378990.0000000000000000 4047390.0000000000000000, 378990.0000000000000000 4057290.0000000000000000, 369090.0000000000000000 4057290.0000000000000000, 369090.0000000000000000 4047390.0000000000000000, 378990.0000000000000000 4047390.0000000000000000))", "name": "12SUF", "subgrid_id": 69, "chip_id": "12SUF_69", "Site_ID": "AZ-1" }, "geometry": { "type": "Polygon", "coordinates": [ [ [ -112.352314691284505, 36.562981774092385 ], [ -112.352314691284505, 36.653511613516322 ], [ -112.464604368912092, 36.653511613516322 ], [ -112.464604368912092, 36.562981774092385 ], [ -112.352314691284505, 36.562981774092385 ] ] ] } },
{ "type": "Feature", "properties": { "epsg": "32612", "utmWkt": "POLYGON ((416910.0000000000000000 3933720.0000000000000000, 416910.0000000000000000 3943620.0000000000000000, 407010.0000000000000000 3943620.0000000000000000, 407010.0000000000000000 3933720.0000000000000000, 416910.0000000000000000 3933720.0000000000000000))", "name": "12SVE", "subgrid_id": 70, "chip_id": "12SVE_70", "Site_ID": "AZ-2" }, "geometry": { "type": "Polygon", "coordinates": [ [ [ -111.916650020504107, 35.542762335733144 ], [ -111.916650020504107, 35.632894429452421 ], [ -112.026991323468309, 35.632894429452421 ], [ -112.026991323468309, 35.542762335733144 ], [ -111.916650020504107, 35.542762335733144 ] ] ] } },
{ "type": "Feature", "properties": { "epsg": "32612", "utmWkt": "POLYGON ((461910.0000000000000000 3943770.0000000000000000, 461910.0000000000000000 3953670.0000000000000000, 452010.0000000000000000 3953670.0000000000000000, 452010.0000000000000000 3943770.0000000000000000, 461910.0000000000000000 3943770.0000000000000000))", "name": "12SVE", "subgrid_id": 70, "chip_id": "12SVE_70", "Site_ID": "AZ-3" }, "geometry": { "type": "Polygon", "coordinates": [ [ [ -111.420702213438346, 35.636576205036924 ], [ -111.420702213438346, 35.726267878300575 ], [ -111.530634140559599, 35.726267878300575 ], [ -111.530634140559599, 35.636576205036924 ], [ -111.420702213438346, 35.636576205036924 ] ] ] } },
{ "type": "Feature", "properties": { "epsg": "32612", "utmWkt": "POLYGON ((473730.0000000000000000 3947580.0000000000000000, 473730.0000000000000000 3957480.0000000000000000, 463830.0000000000000000 3957480.0000000000000000, 463830.0000000000000000 3947580.0000000000000000, 473730.0000000000000000 3947580.0000000000000000))", "name": "12SVE", "subgrid_id": 70, "chip_id": "12SVE_70", "Site_ID": "AZ-4" }, "geometry": { "type": "Polygon", "coordinates": [ [ [ -111.290276990232812, 35.671431792866954 ], [ -111.290276990232812, 35.761006114282075 ], [ -111.400113428552615, 35.761006114282075 ], [ -111.400113428552615, 35.671431792866954 ], [ -111.290276990232812, 35.671431792866954 ] ] ] } },
{ "type": "Feature", "properties": { "epsg": "32612", "utmWkt": "POLYGON ((438300.0000000000000000 3886320.0000000000000000, 438300.0000000000000000 3896220.0000000000000000, 428400.0000000000000000 3896220.0000000000000000, 428400.0000000000000000 3886320.0000000000000000, 438300.0000000000000000 3886320.0000000000000000))", "name": "12SVE", "subgrid_id": 70, "chip_id": "12SVE_70", "Site_ID": "AZ-5" }, "geometry": { "type": "Polygon", "coordinates": [ [ [ -111.677118858504215, 35.117175998612012 ], [ -111.677118858504215, 35.207095577455021 ], [ -111.786615672579401, 35.207095577455021 ], [ -111.786615672579401, 35.117175998612012 ], [ -111.677118858504215, 35.117175998612012 ] ] ] } },
{ "type": "Feature", "properties": { "epsg": "32612", "utmWkt": "POLYGON ((605160.0000000000000000 3506790.0000000000000000, 605160.0000000000000000 3516690.0000000000000000, 595260.0000000000000000 3516690.0000000000000000, 595260.0000000000000000 3506790.0000000000000000, 605160.0000000000000000 3506790.0000000000000000))", "name": "12SWA", "subgrid_id": 74, "chip_id": "12SWA_74", "Site_ID": "AZ-6" }, "geometry": { "type": "Polygon", "coordinates": [ [ [ -109.889333688234458, 31.691620754094867 ], [ -109.889333688234458, 31.781792537522335 ], [ -109.994844732354622, 31.781792537522335 ], [ -109.994844732354622, 31.691620754094867 ], [ -109.889333688234458, 31.691620754094867 ] ] ] } },
{ "type": "Feature", "properties": { "epsg": "32612", "utmWkt": "POLYGON ((517620.0000000000000000 3515700.0000000000000000, 517620.0000000000000000 3525600.0000000000000000, 507720.0000000000000000 3525600.0000000000000000, 507720.0000000000000000 3515700.0000000000000000, 517620.0000000000000000 3515700.0000000000000000))", "name": "12SWA", "subgrid_id": 74, "chip_id": "12SWA_74", "Site_ID": "AZ-7" }, "geometry": { "type": "Polygon", "coordinates": [ [ [ -110.813727332542541, 31.77669930200171 ], [ -110.813727332542541, 31.866127534860819 ], [ -110.918465157958465, 31.866127534860819 ], [ -110.918465157958465, 31.77669930200171 ], [ -110.813727332542541, 31.77669930200171 ] ] ] } },
{ "type": "Feature", "properties": { "epsg": "32612", "utmWkt": "POLYGON ((594720.0000000000000000 3507510.0000000000000000, 594720.0000000000000000 3517410.0000000000000000, 584820.0000000000000000 3517410.0000000000000000, 584820.0000000000000000 3507510.0000000000000000, 594720.0000000000000000 3507510.0000000000000000))", "name": "12SWA", "subgrid_id": 74, "chip_id": "12SWA_74", "Site_ID": "AZ-8" }, "geometry": { "type": "Polygon", "coordinates": [ [ [ -109.999512545113248, 31.699026487931874 ], [ -109.999512545113248, 31.789111047279402 ], [ -110.10492998768396, 31.789111047279402 ], [ -110.10492998768396, 31.699026487931874 ], [ -109.999512545113248, 31.699026487931874 ] ] ] } },
{ "type": "Feature", "properties": { "epsg": "32612", "utmWkt": "POLYGON ((520500.0000000000000000 3525600.0000000000000000, 520500.0000000000000000 3535500.0000000000000000, 510600.0000000000000000 3535500.0000000000000000, 510600.0000000000000000 3525600.0000000000000000, 520500.0000000000000000 3525600.0000000000000000))", "name": "12SWA", "subgrid_id": 74, "chip_id": "12SWA_74", "Site_ID": "AZ-9" }, "geometry": { "type": "Polygon", "coordinates": [ [ [ -110.783071664883678, 31.865969059506632 ], [ -110.783071664883678, 31.955421393564198 ], [ -110.887940231507287, 31.955421393564198 ], [ -110.887940231507287, 31.865969059506632 ], [ -110.783071664883678, 31.865969059506632 ] ] ] } },
{ "type": "Feature", "properties": { "epsg": "32606", "utmWkt": "POLYGON ((566280.0000000000000000 7079430.0000000000000000, 566280.0000000000000000 7089330.0000000000000000, 556380.0000000000000000 7089330.0000000000000000, 556380.0000000000000000 7079430.0000000000000000, 566280.0000000000000000 7079430.0000000000000000))", "name": "06VWR", "subgrid_id": 78, "chip_id": "06VWR_78", "Site_ID": "AK-1" }, "geometry": { "type": "Polygon", "coordinates": [ [ [ -145.648474865699995, 63.83592051030184 ], [ -145.648474865699995, 63.926481886574933 ], [ -145.85391943304262, 63.926481886574933 ], [ -145.85391943304262, 63.83592051030184 ], [ -145.648474865699995, 63.83592051030184 ] ] ] } },
{ "type": "Feature", "properties": { "epsg": "32610", "utmWkt": "POLYGON ((586350.0000000000000000 5069700.0000000000000000, 586350.0000000000000000 5079600.0000000000000000, 576450.0000000000000000 5079600.0000000000000000, 576450.0000000000000000 5069700.0000000000000000, 586350.0000000000000000 5069700.0000000000000000))", "name": "10TER", "subgrid_id": 58, "chip_id": "10TER_58", "Site_ID": "WA-3" }, "geometry": { "type": "Polygon", "coordinates": [ [ [ -121.88754186060423, 45.775461280253445 ], [ -121.88754186060423, 45.865721164202427 ], [ -122.016634389965589, 45.865721164202427 ], [ -122.016634389965589, 45.775461280253445 ], [ -121.88754186060423, 45.775461280253445 ] ] ] } },
{ "type": "Feature", "properties": { "epsg": "32610", "utmWkt": "POLYGON ((557010.0000000000000000 5062950.0000000000000000, 557010.0000000000000000 5072850.0000000000000000, 547110.0000000000000000 5072850.0000000000000000, 547110.0000000000000000 5062950.0000000000000000, 557010.0000000000000000 5062950.0000000000000000))", "name": "10TER", "subgrid_id": 58, "chip_id": "10TER_58", "Site_ID": "WA-2" }, "geometry": { "type": "Polygon", "coordinates": [ [ [ -122.266292233004933, 45.717756527260882 ], [ -122.266292233004933, 45.807603446612951 ], [ -122.394659806297426, 45.807603446612951 ], [ -122.394659806297426, 45.717756527260882 ], [ -122.266292233004933, 45.717756527260882 ] ] ] } }
]
}
